NORAD_CAT_ID,OBJECT_NAME,OBJECT_TYPE,EPOCH,MEAN_MOTION,ECCENTRICITY,INCLINATION,RA_OF_ASC_NODE,ARG_OF_PERICENTER,MEAN_ANOMALY,BSTAR,MEAN_MOTION_DOT,MEAN_MOTION_DDOT,TLE_LINE0,TLE_LINE1,TLE_LINE2,SEMIMAJOR_AXIS,PERIOD,APOGEE,PERIGEE,DECAYED
52093.0,STARLINK-3673,PAYLOAD,2022-12-19 15:31:44,15.08848674,0.0002307,53.2181,328.5907,31.1672,328.9457,0.00016682,2.368e-05,0.0,0 STARLINK-3673,1 52093U 22029F   22353.64703706  .00002368  00000-0  16682-3 0  9997,2 52093  53.2181 328.5907 0002307  31.1672 328.9457 15.08848674 43115,6917.854,95.437,541.315,538.123,0.0
52093.0,STARLINK-3673,PAYLOAD,2022-12-20 07:25:35,15.0885823,0.0002334,53.2172,325.617,32.0257,328.0877,0.00038066,5.778e-05,0.0,0 STARLINK-3673,1 52093U 22029F   22354.30943416  .00005778  00000-0  38066-3 0  9993,2 52093  53.2172 325.6170 0002334  32.0257 328.0877 15.08858230 43211,6917.825,95.436,541.304,538.075,0.0
52093.0,STARLINK-3673,PAYLOAD,2022-12-20 15:22:31,15.08847843,0.0002488,53.2168,324.1291,34.1186,325.9966,0.00025233,3.731e-05,0.0,0 STARLINK-3673,1 52093U 22029F   22354.64063857  .00003731  00000-0  25233-3 0  9991,2 52093  53.2168 324.1291 0002488  34.1186 325.9966 15.08847843 43266,6917.856,95.437,541.443,538.0,0.0
52093.0,STARLINK-3673,PAYLOAD,2022-12-21 05:41:00,15.08828984,0.0002036,53.2176,321.4545,36.8677,323.2454,-0.00017664,-3.098e-05,0.0,0 STARLINK-3673,1 52093U 22029F   22355.23680720 -.00003098  00000-0 -17664-3 0  9998,2 52093  53.2176 321.4545 0002036  36.8677 323.2454 15.08828984 43358,6917.9140000000025,95.438,541.188,538.371,0.0
52093.0,STARLINK-3673,PAYLOAD,2022-12-21 10:27:09,15.088259099999998,0.0002333,53.2177,320.5616,33.6189,326.4951,-0.0002156,-3.717e-05,0.0,0 STARLINK-3673,1 52093U 22029F   22355.43553013 -.00003717  00000-0 -21560-3 0  9992,2 52093  53.2177 320.5616 0002333  33.6189 326.4951 15.08825910 43387,6917.9230000000025,95.438,541.4019999999998,538.175,0.0
52093.0,STARLINK-3673,PAYLOAD,2022-12-22 03:56:24,15.08838266,0.0002435,53.2165,317.291,38.361,321.7555,0.00026185,3.881e-05,0.0,0 STARLINK-3673,1 52093U 22029F   22356.16416803  .00003881  00000-0  26185-3 0  9996,2 52093  53.2165 317.2910 0002435  38.3610 321.7555 15.08838266 43496,6917.886,95.438,541.435,538.066,0.0
52093.0,STARLINK-3673,PAYLOAD,2022-12-22 08:42:33,15.08844459,0.0002439,53.2163,316.3983,39.185,320.9318,0.0010965,0.00017208,0.0,0 STARLINK-3673,1 52093U 22029F   22356.36289155  .00017208  00000-0  10965-2 0  9992,2 52093  53.2163 316.3983 0002439  39.1850 320.9318 15.08844459 43526,6917.8669999999975,95.437,541.419,538.044,0.0
52093.0,STARLINK-3673,PAYLOAD,2022-12-22 21:25:38,15.08850185,0.0002509,53.2166,314.0195,40.6514,319.4665,0.00074536,0.00011598,0.0,0 STARLINK-3673,1 52093U 22029F   22356.89281116  .00011598  00000-0  74536-3 0  9990,2 52093  53.2166 314.0195 0002509  40.6514 319.4665 15.08850185 43601,6917.849,95.437,541.45,537.979,0.0
52093.0,STARLINK-3673,PAYLOAD,2022-12-23 08:33:21,15.08837073,0.0002397,53.2172,311.938,37.127,322.9888,0.00014472,2.016e-05,0.0,0 STARLINK-3673,1 52093U 22029F   22357.35649346  .00002016  00000-0  14472-3 0  9993,2 52093  53.2172 311.9380 0002397  37.1270 322.9888 15.08837073 43679,6917.889,95.438,541.413,538.096,0.0
52093.0,STARLINK-3673,PAYLOAD,2022-12-24 06:48:45,15.08844985,0.000247,53.2172,307.7749,40.8712,319.2465,0.0002457,3.625e-05,0.0,0 STARLINK-3673,1 52093U 22029F   22358.28385493  .00003625  00000-0  24570-3 0  9993,2 52093  53.2172 307.7749 0002470  40.8712 319.2465 15.08844985 43811,6917.865,95.437,541.439,538.021,0.0
52093.0,STARLINK-3673,PAYLOAD,2022-12-24 21:07:13,15.08849704,0.0002501,53.2173,305.0987,41.8833,318.2351,0.00030179,4.519e-05,0.0,0 STARLINK-3673,1 52093U 22029F   22358.88001254  .00004519  00000-0  30179-3 0  9994,2 52093  53.2173 305.0987 0002501  41.8833 318.2351 15.08849704 43904,6917.851,95.437,541.446,537.986,0.0
52093.0,STARLINK-3673,PAYLOAD,2022-12-25 03:28:45,15.08851837,0.0002409,53.2169,303.9089,39.3831,320.7336,0.0003972,6.041e-05,0.0,0 STARLINK-3673,1 52093U 22029F   22359.14497214  .00006041  00000-0  39720-3 0  9992,2 52093  53.2169 303.9089 0002409  39.3831 320.7336 15.08851837 43941,6917.844,95.437,541.376,538.043,0.0
52093.0,STARLINK-3673,PAYLOAD,2022-12-25 08:14:55,15.08841218,0.0002294,53.2172,303.0174,35.1699,324.9444,0.00015618,2.198e-05,0.0,0 STARLINK-3673,1 52093U 22029F   22359.34369693  .00002198  00000-0  15618-3 0  9992,2 52093  53.2172 303.0174 0002294  35.1699 324.9444 15.08841218 43970,6917.877,95.437,541.3290000000002,538.155,0.0
52093.0,STARLINK-3673,PAYLOAD,2022-12-25 20:58:00,15.08834947,0.0002426,53.2173,300.639,38.6365,321.4801,-7.003e-05,-1.403e-05,0.0,0 STARLINK-3673,1 52093U 22029F   22359.87361714 -.00001403  00000-0 -70030-4 0  9996,2 52093  53.2173 300.6390 0002426  38.6365 321.4801 15.08834947 44059,6917.896,95.438,541.439,538.0830000000002,0.0
52093.0,STARLINK-3673,PAYLOAD,2022-12-26 08:05:42,15.08838915,0.0002363,53.217,298.5574,37.3141,322.8015,4.3287e-05,4.01e-06,0.0,0 STARLINK-3673,1 52093U 22029F   22360.33729876  .00000401  00000-0  43287-4 0  9995,2 52093  53.2170 298.5574 0002363  37.3141 322.8015 15.08838915 44122,6917.884,95.438,541.383,538.114,0.0
52093.0,STARLINK-3673,PAYLOAD,2022-12-26 20:48:46,15.08858677,0.0002304,53.2169,296.1785,34.4324,325.6817,-0.000351,-5.873e-05,0.0,0 STARLINK-3673,1 52093U 22029F   22360.86721055 -.00005873  00000-0 -35100-3 0  9998,2 52093  53.2169 296.1785 0002304  34.4324 325.6817 15.08858677 44201,6917.823,95.436,541.2819999999998,538.094,0.0
52093.0,STARLINK-3673,PAYLOAD,2022-12-26 22:24:10,15.08857424,0.0002267,53.2168,295.881,34.2347,325.8791,-0.00036488,-6.094e-05,0.0,0 STARLINK-3673,1 52093U 22029F   22360.93345075 -.00006094  00000-0 -36488-3 0  9996,2 52093  53.2168 295.8810 0002267  34.2347 325.8791 15.08857424 44219,6917.8269999999975,95.436,541.26,538.124,0.0
52093.0,STARLINK-3673,PAYLOAD,2022-12-27 04:45:41,15.08871494,0.0002168,53.2167,294.6916,32.3344,327.7781,-0.00073296,-0.00011945,0.0,0 STARLINK-3673,1 52093U 22029F   22361.19840036 -.00011945  00000-0 -73296-3 0  9991,2 52093  53.2167 294.6916 0002168  32.3344 327.7781 15.08871494 44255,6917.784000000002,95.436,541.149,538.149,0.0
52093.0,STARLINK-3673,PAYLOAD,2022-12-27 19:04:10,15.08857383,0.0002355,53.2167,292.0153,36.511,323.6042,0.00035233,5.326e-05,0.0,0 STARLINK-3673,1 52093U 22029F   22361.79456899  .00005326  00000-0  35233-3 0  9990,2 52093  53.2167 292.0153 0002355  36.5110 323.6042 15.08857383 44341,6917.8269999999975,95.436,541.321,538.063,0.0
52093.0,STARLINK-3673,PAYLOAD,2022-12-28 12:33:25,15.08848133,0.0002463,53.216,288.7442,35.4526,324.6629,5.4524e-05,5.8e-06,0.0,0 STARLINK-3673,1 52093U 22029F   22362.52320889  .00000580  00000-0  54524-4 0  9993,2 52093  53.2160 288.7442 0002463  35.4526 324.6629 15.08848133 44453,6917.856,95.437,541.424,538.0169999999998,0.0
52093.0,STARLINK-3673,PAYLOAD,2022-12-29 12:24:12,15.08843613,0.0002498,53.2159,284.2834,35.2807,324.835,-2.092e-05,-6.21e-06,0.0,0 STARLINK-3673,1 52093U 22029F   22363.51680757 -.00000621  00000-0 -20920-4 0  9997,2 52093  53.2159 284.2834 0002498  35.2807 324.8350 15.08843613 44603,6917.869000000002,95.437,541.462,538.006,0.0
52093.0,STARLINK-3673,PAYLOAD,2022-12-29 13:59:35,15.08843715,0.0002549999999999,53.2157,283.9869,33.708,326.4074,-2.554e-05,-6.95e-06,0.0,0 STARLINK-3673,1 52093U 22029F   22363.58304724 -.00000695  00000-0 -25540-4 0  9995,2 52093  53.2157 283.9869 0002550  33.7080 326.4074 15.08843715 44615,6917.869000000002,95.437,541.498,537.97,0.0
52093.0,STARLINK-3673,PAYLOAD,2022-12-30 04:18:03,15.08850262,0.0002471,53.2157,281.3097,36.7324,323.3837,0.0001456,2.03e-05,0.0,0 STARLINK-3673,1 52093U 22029F   22364.17920494  .00002030  00000-0  14560-3 0  9991,2 52093  53.2157 281.3097 0002471  36.7324 323.3837 15.08850262 44704,6917.849,95.437,541.423,538.005,0.0
52093.0,STARLINK-3673,PAYLOAD,2022-12-30 13:50:21,15.08855293,0.0002195,53.2159,279.5238,37.3948,322.7196,0.00026796,3.981e-05,0.0,0 STARLINK-3673,1 52093U 22029F   22364.57664028  .00003981  00000-0  26796-3 0  9993,2 52093  53.2159 279.5238 0002195  37.3948 322.7196 15.08855293 44760,6917.834,95.437,541.217,538.18,0.0
52093.0,STARLINK-3673,PAYLOAD,2022-12-31 04:08:49,15.08858113,0.0002378,53.2166,276.8499,30.3668,329.7461,0.00041245,6.285e-05,0.0,0 STARLINK-3673,1 52093U 22029F   22365.17279721  .00006285  00000-0  41245-3 0  9998,2 52093  53.2166 276.8499 0002378  30.3668 329.7461 15.08858113 44858,6917.825,95.436,541.335,538.045,0.0
52093.0,STARLINK-3673,PAYLOAD,2022-12-31 18:27:17,15.08842956,0.0002349,53.2159,274.1725,30.6674,329.4455,1.1624e-05,-1.03e-06,0.0,0 STARLINK-3673,1 52093U 22029F   22365.76895794 -.00000103  00000-0  11624-4 0  9990,2 52093  53.2159 274.1725 0002349  30.6674 329.4455 15.08842956 44949,6917.871,95.437,541.361,538.111,0.0
52093.0,STARLINK-3673,PAYLOAD,2023-01-01 03:59:36,15.0883364,0.0002345,53.2161,272.3882,31.8347,328.2786,-0.00026353,-4.479e-05,0.0,0 STARLINK-3673,1 52093U 22029F   23001.16639957 -.00004479  00000-0 -26353-3 0  9994,2 52093  53.2161 272.3882 0002345  31.8347 328.2786 15.08833640 45004,6917.9,95.438,541.387,538.143,0.0
52093.0,STARLINK-3673,PAYLOAD,2023-01-01 13:31:56,15.088219199999996,0.0002082,53.2168,270.6058,35.3849,324.728,-0.00036374,-6.07e-05,0.0,0 STARLINK-3673,1 52093U 22029F   23001.56384726 -.00006070  00000-0 -36374-3 0  9992,2 52093  53.2168 270.6058 0002082  35.3849 324.7280 15.08821920 45065,6917.936,95.439,541.241,538.36,0.0
52093.0,STARLINK-3673,PAYLOAD,2023-01-01 18:18:06,15.088118599999998,0.0002525999999999,53.2144,269.7118,36.7909,323.3256,-0.00045078,-7.45e-05,0.0,0 STARLINK-3673,1 52093U 22029F   23001.76257462 -.00007450  00000-0 -45078-3 0  9994,2 52093  53.2144 269.7118 0002526  36.7909 323.3256 15.08811860 45093,6917.965999999999,95.439,541.5790000000002,538.0840000000002,0.0
